#aV2007  9  2  0  0   .00000000      96 DD+AD WGS84 FIT  NGA
## 1443       .00000000   900.00000000 54345  .0000000000000
+   31     1  2  3  4  5  6  7  8  9 10 11 12 13 14 16 17 18
+         19 20 21 22 23 24 25 26 27 28 29 30 31 32  0  0  0
+          0  0  0  0  0  0  0  0  0  0  0  0  0  0  0  0  0
+          0  0  0  0  0  0  0  0  0  0  0  0  0  0  0  0  0
+          0  0  0  0  0  0  0  0  0  0  0  0  0  0  0  0  0
++         0  0  0  0  0  0  0  0  0  0  0  0  0  0  0  0  0
++         0  0  0  0  0  0  0  0  0  0  0  0  0  0  0  0  0
++         0  0  0  0  0  0  0  0  0  0  0  0  0  0  0  0  0
++         0  0  0  0  0  0  0  0  0  0  0  0  0  0  0  0  0
++         0  0  0  0  0  0  0  0  0  0  0  0  0  0  0  0  0
%c cc cc ccc ccc cccc cccc cccc cccc ccccc ccccc ccccc ccccc
%c cc cc ccc ccc cccc cccc cccc cccc ccccc ccccc ccccc ccccc
%f  0.0000000  0.000000000  0.00000000000  0.000000000000000
%f  0.0000000  0.000000000  0.00000000000  0.000000000000000
%i    0    0    0    0      0      0      0      0         0
%i    0    0    0    0      0      0      0      0         0
/*      NGA, ST. LOUIS,MO.                                  
/*   EPHEMERIS COMPUTED FROM  3 DAYS OF DATA                
/* CCCCCCCCCCCCCCCCCCCCCCCCCCCCCCCCCCCCCCCCCCCCCCCCCCCCCCCCC
/* CCCCCCCCCCCCCCCCCCCCCCCCCCCCCCCCCCCCCCCCCCCCCCCCCCCCCCCCC
*  2007  9  2  7 15   .00000000                                                 
P  1 -14344.877749  10162.863345 -19669.949125    149.946775                    
V  1   2412.354105 -25295.358360 -14745.685839       .023689                    
P  2  23012.644330 -12729.064190   2037.689784    133.491501                    
V  2   4119.913105   1984.843317 -31462.054192       .027715                    
P  3 -11189.015882  18185.303600  15358.301078    109.938885                    
V  3  -3357.435914 -20079.262699  21369.483434       .054204                    
P  4  24890.415470  -4429.646669  -8780.966905     -2.439382                    
V  4  -8830.895059   7071.128211 -28469.897851      -.026375                    
P  5 -10399.642279 -19051.201847 -15661.637706    350.767665                    
V  5  17984.607421   7679.054245 -21485.297156       .357376                    
P  6  -8427.074726 -21878.434217  12638.027386    246.803103                    
V  6   3607.455718 -15689.144543 -25160.149172      -.002851                    
P  7 -10148.238737 -20215.073184  14228.290835   -104.851194                    
V  7   2949.983293 -17528.292843 -23411.610414     -1.068909                    
P  8  21337.352614   2595.594453  15785.563042   -121.198852                    
V  8 -17985.545366   8910.193283  22241.017835      -.014811                    
P  9   6754.368910 -18104.604938 -18749.296356     85.888077                    
V  9  20671.449015  -9261.245029  17142.810307       .015919                    
P 10  14241.529093  -7560.352354  21047.374225     60.396181                    
V 10  21422.603257  16294.150510  -8284.979091      -.577583                    
P 11  -3035.052740  19595.114259 -17656.692903     23.097176                    
V 11 -19984.007678  10854.783996  15890.821069       .005319                    
P 12  -3389.359344 -18310.709443 -18870.663963    -54.745102                    
V 12  20638.968220  12579.712849 -15769.434793      -.012682                    
P 13   6216.265503  21942.291780  13531.118727    203.172344                    
V 13  -3426.693111  17006.252796 -25772.944013       .030197                    
P 14 -14137.035832  -4111.416699 -22023.933333     38.984494                    
V 14   3054.880452 -27924.810209   3146.663244       .022307                    
P 16 -18355.125919   3158.800605  19072.714273    173.143910                    
V 16 -18819.123782 -14935.563420 -15540.057575       .023143                    
P 17  14472.323474   6233.551985 -21378.934453     55.905190                    
V 17  -2867.929007  27026.237468   5799.294214      -.012070                    
P 18 -19421.967978 -18024.171453   3846.215683   -238.027563                    
V 18   5363.574460    600.964919  30827.626442       .016646                    
P 19  -7608.154175  24773.878287   5558.626898     62.451450                    
V 19  -1875.508013  -7319.081056  30721.606578       .025559                    
P 20   7020.097876  19291.966733 -16972.407852    -28.994030                    
V 20 -18800.469829 -10336.061471 -19610.712075      -.005702                    
P 21 -13991.080341 -10211.590650  20413.263763     78.470938                    
V 21  23072.488352 -11001.222469   9793.885488      -.001515                    
P 22 -23079.096743 -10042.174707  -8394.772852    196.458682                    
V 22  -6875.760450  -8929.893776  28986.671423       .011630                    
P 23    523.333370  26131.273311   3895.220686    197.068392                    
V 23  -3058.688962   4834.622500 -31621.340235       .038382                    
P 24   -615.671139 -16100.204854  21356.485627     27.383360                    
V 24  24792.413850  -9725.783964  -6396.456134       .029321                    
P 25   7135.038524  13657.735577  22000.191505    426.989394                    
V 25 -23254.561776  13853.814149   -927.033383       .114391                    
P 26   8566.238667 -23035.411430   8862.132508     12.999478                    
V 26    730.593186  12199.263822  30054.296625       .137072                    
P 27  14263.654031   8934.118896  21245.578507    132.533423                    
V 27 -21985.212826  12806.987503   9462.471195       .023427                    
P 28  23026.005593  12581.606487  -4836.458606     -6.124614                    
V 28   3818.774779   5822.723480  30776.340032      -.007195                    
P 29  10644.904537 -20071.419703  13621.584858      5.424088                    
V 29    298.415251  17151.310548  25787.359827       .001420                    
P 30 -15262.840404 -19041.664785 -10939.335860     44.416666                    
V 30  12729.243423   4956.196591 -27089.075860       .011927                    
P 31 -24822.637792   7466.489895  -5762.942804     10.891449                    
V 31   5682.921600  -5619.376997 -30638.913300      -.011710                    
P 32 -19555.211863   -697.117684 -17426.747319     40.436025                    
V 32 -16794.961709 -15928.647353  19104.897112       .175131                    
EOF
